GLOBALSTAR M035         
1 25851U 99037A   26018.96668649 -.00000035  00000+0  10812-2 0  9992
2 25851  51.9968 293.7573 0013786 335.4555 107.5664 11.04541699120105
GLOBALSTAR M032         
1 25852U 99037B   26018.95825153 -.00000199  00000+0 -42536-2 0  9997
2 25852  51.9960 104.0849 0013158 169.0263 191.0826 11.19071421158946
GLOBALSTAR M051         
1 25853U 99037C   26018.86093511 -.00000076  00000+0 -11207-3 0  9999
2 25853  51.9768 240.6065 0001077  74.4351 285.6579 11.42199534157030
GLOBALSTAR M030         
1 25854U 99037D   26018.98704775 -.00000119  00000+0 -92806-3 0  9996
2 25854  51.9897  32.6800 0003456  72.7682 287.3513 11.55110730174986
GLOBALSTAR M048         
1 25872U 99041A   26018.86525648 -.00000090  00000+0 -52881-3 0  9995
2 25872  51.9336 183.9649 0013109 192.4698 347.5096 11.33861886149447
GLOBALSTAR M026         
1 25873U 99041B   26018.56383816 -.00000108  00000+0 -16209-2 0  9995
2 25873  52.0024  50.3373 0001737 259.3303 264.5958 11.06842752172335
GLOBALSTAR M043         
1 25874U 99041C   26018.95886272 -.00000094  00000+0 -76759-3 0  9994
2 25874  51.9421 299.9865 0013519 322.4957 118.6853 11.25696112147175
GLOBALSTAR M028         
1 25875U 99041D   26018.94731507 -.00000037  00000+0  40785-3 0  9990
2 25875  51.9622 269.7010 0062981 179.3815 180.7133 12.50594517217179
